BEESAT-4                
1 41619U 16040W   23073.13317713  .00066591  00000+0  13671-2 0  9999
2 41619  97.1752 122.8512 0006676 211.5735 148.5115 15.45766955362126
RAVAN                   
1 41849U 16067B   23073.01032027  .00012560  00000+0  90739-3 0  9990
2 41849  98.0238 223.6583 0017558 146.5687 213.6650 15.04098203346457
CELTEE 1                
1 41850U 16067C   23072.36187724  .00007651  00000+0  61203-3 0  9993
2 41850  98.0388 217.0386 0005205 187.1967 172.9181 15.00487295346041
OPTICUBE 04             
1 41851U 16067D   23072.90849918  .00004354  00000+0  36354-3 0  9990
2 41851  98.0290 216.1971 0007991 165.1077 195.0381 14.99078089346059
AEROCUBE 8D             
1 41852U 16067E   23072.88611080  .00009167  00000+0  72851-3 0  9994
2 41852  98.0387 216.5383 0004628 179.4640 180.6588 15.00683150346060
AEROCUBE 8C             
1 41853U 16067F   23072.93933039  .00009002  00000+0  71626-3 0  9999
2 41853  98.0282 216.3497 0007808 121.5276 238.6710 15.00626076346060
PROMETHEUS 2-1          
1 41854U 16067G   23072.93216319  .00014933  00000+0  10974-2 0  9992
2 41854  98.0543 218.5954 0018188 174.5823 185.5601 15.03402861346169
PROMETHEUS 2-3          
1 41855U 16067H   23072.32515901  .00015313  00000+0  11276-2 0  9994
2 41855  98.0461 217.9267 0015454 184.5878 175.5207 15.03356622346077
INS-1B                  
1 41954U 17008G   23073.12603468  .00061951  00000+0  13074-2 0  9992
2 41954  97.2153 133.6063 0004231 350.0965  10.0200 15.44989760338147
DIDO-2                  
1 42000U 17008BE  23072.39004087  .00027088  00000+0  78871-3 0  9995
2 42000  97.2161 130.1981 0006592  31.5628 328.6010 15.35357932337213
PEASSS                  
1 42015U 17008BV  23072.59267877  .00047990  00000+0  10867-2 0  9995
2 42015  97.2219 136.3064 0003462  18.9712 341.1665 15.42964727338074
AL-FARABI 1             
1 42016U 17008BW  23072.60120447  .00091710  00000+0  14677-2 0  9991
2 42016  97.2286 141.5378 0001523 354.0963   6.0272 15.52809779338485
NAYIF-1 (EO-88)         
1 42017U 17008BX  23073.15192867  .00097968  00000+0  15287-2 0  9997
2 42017  97.2259 142.1759 0001868 354.1813   5.9419 15.53489200338602
UCLSAT                  
1 42765U 17036A   23073.08665464  .00048536  00000+0  11515-2 0  9995
2 42765  97.1592 113.2748 0008831  83.0786 277.1466 15.41527780318596
LITUANICASAT-2          
1 42768U 17036D   23073.08929909  .00431313  00000+0  22476-2 0  9992
2 42768  97.1558 121.4327 0001001  35.1544 324.9790 15.79763054318933
AALTO-1                 
1 42775U 17036L   23073.07714401  .00022621  00000+0  73928-3 0  9995
2 42775  97.1662 106.0501 0012819  89.5106 270.7605 15.31657626317944
URSA MAIOR              
1 42776U 17036M   23072.32646258  .00026019  00000+0  81671-3 0  9996
2 42776  97.1671 106.4204 0012293  89.8846 270.3805 15.32929273317881
COMPASS 2               
1 42777U 17036N   23073.22586322  .00116915  00000+0  18245-2 0  9993
2 42777  97.1630 117.8517 0006159  68.5009 291.6901 15.53400010318643
DIAMOND RED             
1 42783U 17036U   23072.34179019  .00030518  00000+0  89218-3 0  9996
2 42783  97.1657 109.3922 0010540  93.0750 267.1701 15.35172440318065
PEGASUS                 
1 42784U 17036V   23072.90982130  .00043628  00000+0  11144-2 0  9993
2 42784  97.1637 111.9486 0009592  84.8401 275.3940 15.39298547318285
DIAMOND GREEN           
1 42785U 17036W   23072.32453063  .00034218  00000+0  98457-3 0  9996
2 42785  97.1657 109.4815 0010323  94.9337 265.3086 15.35650577318135
DIAMOND BLUE            
1 42786U 17036X   23072.52567373  .00031625  00000+0  91585-3 0  9993
2 42786  97.1655 109.6569 0010538  92.6930 267.5520 15.35461762318081
NUDTSAT                 
1 42787U 17036Y   23072.90951359  .00151643  00000+0  20395-2 0  9990
2 42787  97.1601 119.4605 0005113  89.4328 270.7504 15.57348758318598
SUCHAI                  
1 42788U 17036Z   23073.06318081  .00057759  00000+0  12417-2 0  9997
2 42788  97.1621 114.8478 0008029  81.2172 278.9986 15.44437536318553
SKCUBE                  
1 42789U 17036AA  23072.83280297  .00049390  00000+0  11596-2 0  9998
2 42789  97.1621 113.5708 0008642  81.8545 278.3683 15.41839682318370
VZLUSAT-1               
1 42790U 17036AB  23072.07547139  .00135236  00000+0  19012-2 0  9993
2 42790  97.1585 118.4608 0005047  77.5773 282.6047 15.56208042318609
ROBUSTA 1B              
1 42792U 17036AD  23073.08606991  .00055848  00000+0  12319-2 0  9992
2 42792  97.1604 114.7263 0007977  82.3453 277.8701 15.43683228318480
CICERO 6                
1 42793U 17036AE  23072.09918943  .00029469  00000+0  88935-3 0  9994
2 42793  97.1644 109.4958 0009453  93.1171 267.1155 15.34185645318143
CORVUS BC2              
1 42846U 17042X   23073.05001001  .00004792  00000+0  45298-3 0  9992
2 42846  97.3956 279.7830 0009439 163.4204 196.7327 14.94088174308514
CORVUS BC1              
1 42847U 17042Y   23073.11410091  .00004949  00000+0  46655-3 0  9995
2 42847  97.3952 280.1885 0009212 162.2032 197.9513 14.94184579308530
MIRATA                  
1 43015U 17073C   23073.20989160  .00021030  00000+0  13804-2 0  9994
2 43015  97.6460 323.8808 0220874  11.3420 349.2659 14.89760757287338
MAKERSAT 0              
1 43016U 17073D   23073.19749523  .00016461  00000+0  11376-2 0  9994
2 43016  97.6458 322.5406 0233401  18.9128 342.0579 14.86270458287180
CORVUS BC3              
1 43118U 18004H   23072.73575667  .00026670  00000+0  80753-3 0  9996
2 43118  97.3313 147.4491 0008985 126.4669 233.7403 15.34107245287381
MICROMAS-2A             
1 43131U 18004W   23073.22879736  .00408011  00000+0  24916-2 0  9991
2 43131  97.3357 161.8673 0002578 261.1127  98.9846 15.76241623288270
CICERO 7                
1 43143U 18004AJ  23073.21967913  .00046307  00000+0  95669-3 0  9998
2 43143  97.3472 158.0159 0005229 117.2535 242.9247 15.45683825288049
GOMX-4B                 
1 43196U 18015E   23072.89110073  .00021173  00000+0  66673-3 0  9995
2 43196  97.5647 221.2491 0015689 183.6674 176.4456 15.32827849284330
GOMX-4A                 
1 43197U 18015F   23073.23434090  .00033076  00000+0  95407-3 0  9995
2 43197  97.5642 223.2555 0015659 179.2486 304.2791 15.35513519284509
AEROCUBE 12A            
1 43556U 18046C   23073.16746737  .00142161  00000+0  14733-2 0  9992
2 43556  51.6276 293.8281 0007133 251.0175 109.0047 15.63680838261064
AEROCUBE 12B            
1 43557U 18046D   23072.89099338  .00074935  00000+0  11280-2 0  9997
2 43557  51.6330 307.6422 0005754 253.4390 106.5969 15.54127219260804
CUBEBEL-1 (BSUSAT-1)    
1 43666U 18083E   23073.17767122  .00043775  00000+0  14130-2 0  9999
2 43666  97.3936 104.5867 0012985 101.2791 331.7953 15.31915774242621
CICERO 10               
1 43690U 18088A   23072.95173122  .00025475  00000+0  81922-3 0  9998
2 43690  85.0334 136.7660 0010866 219.2116 140.8345 15.32063188240872
PROXIMA I               
1 43694U 18088E   23072.14615035  .00027407  00000+0  82423-3 0  9991
2 43694  85.0263 133.2790 0014858 188.2494 171.8512 15.34139832241033
PROXIMA II              
1 43696U 18088G   23072.47976400  .00026980  00000+0  81292-3 0  9993
2 43696  85.0267 133.0904 0014932 187.0524 173.0517 15.34080117241072
FACSAT-1                
1 43721U 18096C   23073.20881618  .00148349  00000+0  17926-2 0  9995
2 43721  97.3180 160.3802 0009314 166.6229 251.4594 15.60178052239599
CENTAURI-2              
1 43722U 18096D   23073.21533491  .01785369  23366-2  24390-2 0  9996
2 43722  97.3086 166.1629 0008536 268.3205  91.7099 16.06784516239937
SIRION PATHFINDER-2     
1 43759U 18099B   23072.42660452  .00005624  00000+0  48098-3 0  9996
2 43759  97.5834 136.8485 0014248  79.5236 280.7592 14.97925801233289
CORVUS BC4              
1 43767U 18099K   23073.15581671  .00005348  00000+0  46489-3 0  9996
2 43767  97.5780 135.6588 0011940  83.8602 276.3981 14.97337333233303
MOVE-II                 
1 43780U 18099Y   23072.15170465  .00016074  00000+0  12441-2 0  9993
2 43780  97.5802 138.3194 0012041 115.2320 245.0154 15.01480350233316
SPACEBEE-7              
1 43816U 18099BL  23073.13450998  .00012063  00000+0  95289-3 0  9990
2 43816  97.5960 139.9271 0015465  60.7569 299.5199 15.00730918233046
SPACEBEE-5              
1 43817U 18099BM  23072.60184525  .00037645  00000+0  22810-2 0  9994
2 43817  97.6011 144.8776 0004093  74.1594 286.0086 15.10462580233237
SPACEBEE-6              
1 43818U 18099BN  23073.14705446  .00018322  00000+0  13514-2 0  9998
2 43818  97.5968 141.6236 0012990  79.5305 280.7384 15.03270502233277
SHIELDS 1               
1 43850U 18104B   23072.38837602  .00012722  00000+0  48202-3 0  9997
2 43850  85.0263 233.4231 0013327   0.2331 359.8917 15.26685818235483
STF-1                   
1 43852U 18104D   23072.41803196  .00039578  00000+0  11253-2 0  9997
2 43852  85.0265 232.3582 0011665 359.0873   1.0353 15.35916648235661
ZACUBE-2                
1 43907U 18111AH  23073.23626081  .00039075  00000+0  11364-2 0  9998
2 43907  97.1538 315.3464 0015584 192.0092 285.6905 15.35217437234552
LUME 1                  
1 43908U 18111AJ  23073.15989010  .00038274  00000+0  95950-3 0  9998
2 43908  97.1551 318.1643 0014504 177.1813 182.9518 15.39838204234738
AOBA VELOX-IV           
1 43940U 19003J   23073.05271088  .00784768  24600-3  27964-2 0  9994
2 43940  97.0732 109.8058 0007881 227.1191 132.9421 15.88870367231852
MOVE-IIB                
1 44398U 19038N   23072.90947089  .00048952  00000+0  16348-2 0  9990
2 44398  97.6578  51.9118 0012679 269.2661  90.7126 15.30796227204041
SONATE                  
1 44400U 19038Q   23072.92163945  .00014922  00000+0  71409-3 0  9997
2 44400  97.6768  48.8157 0019170 284.6780  75.2328 15.18911179203761
LUCKY-7                 
1 44406U 19038W   23072.89376024  .00020097  00000+0  90642-3 0  9993
2 44406  97.6738  49.7421 0017582 280.5640  79.3614 15.20915325203823
